QIANFAN-89              
1 63175U 25046S   26012.24308958  .00000208  00000+0  30316-3 0  9994
2 63175  88.9790 316.8846 0018235  41.0312 319.2207 13.50988808 51528
QIANFAN-90              
1 63176U 25046T   26012.27182680  .00000203  00000+0  29573-3 0  9998
2 63176  88.9790 316.8541 0015138  40.1732 320.0536 13.50988425 51548
QIANFAN-91              
1 66033U 25233A   26012.23039671  .00000049  00000+0  57840-4 0  9995
2 66033  88.9926  59.0015 0014227 312.9756  47.0201 13.50988359 12122
QIANFAN-92              
1 66034U 25233B   26012.23505421  .00000064  00000+0  81272-4 0  9990
2 66034  88.9910  58.9976 0014070 313.0729  46.9243 13.50258138 12127
QIANFAN-93              
1 66035U 25233C   26012.24509749  .00000063  00000+0  79933-4 0  9999
2 66035  88.9937  59.0067 0012605 311.3011  48.7054 13.50168326 12126
QIANFAN-94              
1 66036U 25233D   26012.27796318  .00000091  00000+0  91759-4 0  9994
2 66036  88.9934  58.9400 0013798 309.3748  50.6190 13.68550828 12169
QIANFAN-95              
1 66037U 25233E   26012.29435220  .00000121  00000+0  69427-4 0  9990
2 66037  88.9936  58.6322 0011763 311.7299  48.2875 14.02856849 12333
QIANFAN-96              
1 66038U 25233F   26012.26750563  .00000030  00000+0  28581-4 0  9993
2 66038  88.9929  59.0087 0001238  92.6714 267.4579 13.50983403 12124
